{
  "type": "FeatureCollection",
  "features": [
    {
      "type": "Feature",
      "properties": {
        "norad_id": 65987,
        "name": "SDA_1677",
        "group": "active",
        "lat": NaN,
        "lon": NaN,
        "alt_km": NaN,
        "timestamp": "2025-12-01T03:08:33.410661+00:00",
        "meta": {
          "OBJECT_NAME": "SDA_1677",
          "OBJECT_ID": "2025-230P",
          "EPOCH": "2025-11-30T14:26:16.498176",
          "MEAN_MOTION": 13.84666352,
          "ECCENTRICITY": 0.0001989,
          "INCLINATION": 81.3005,
          "RA_OF_ASC_NODE": 35.8778,
          "ARG_OF_PERICENTER": 357.1146,
          "MEAN_ANOMALY": 2.9999,
          "EPHEMERIS_TYPE": 0,
          "CLASSIFICATION_TYPE": "U",
          "NORAD_CAT_ID": 65987,
          "ELEMENT_SET_NO": 999,
          "REV_AT_EPOCH": 632,
          "BSTAR": 0.00013472,
          "MEAN_MOTION_DOT": 1.63e-06,
          "MEAN_MOTION_DDOT": 0
        }
      },
      "geometry": {
        "type": "Point",
        "coordinates": [
          NaN,
          NaN
        ]
      }
    },
    {
      "type": "Feature",
      "properties": {
        "norad_id": 65988,
        "name": "SDA_1678",
        "group": "active",
        "lat": NaN,
        "lon": NaN,
        "alt_km": NaN,
        "timestamp": "2025-12-01T03:08:33.410666+00:00",
        "meta": {
          "OBJECT_NAME": "SDA_1678",
          "OBJECT_ID": "2025-230Q",
          "EPOCH": "2025-11-30T15:30:02.526048",
          "MEAN_MOTION": 13.85516662,
          "ECCENTRICITY": 0.0004527,
          "INCLINATION": 81.3036,
          "RA_OF_ASC_NODE": 35.7925,
          "ARG_OF_PERICENTER": 52.2029,
          "MEAN_ANOMALY": 307.9538,
          "EPHEMERIS_TYPE": 0,
          "CLASSIFICATION_TYPE": "U",
          "NORAD_CAT_ID": 65988,
          "ELEMENT_SET_NO": 999,
          "REV_AT_EPOCH": 633,
          "BSTAR": 0.00012294,
          "MEAN_MOTION_DOT": 1.52e-06,
          "MEAN_MOTION_DDOT": 0
        }
      },
      "geometry": {
        "type": "Point",
        "coordinates": [
          NaN,
          NaN
        ]
      }
    },
    {
      "type": "Feature",
      "properties": {
        "norad_id": 65989,
        "name": "SDA_1679",
        "group": "active",
        "lat": NaN,
        "lon": NaN,
        "alt_km": NaN,
        "timestamp": "2025-12-01T03:08:33.410672+00:00",
        "meta": {
          "OBJECT_NAME": "SDA_1679",
          "OBJECT_ID": "2025-230R",
          "EPOCH": "2025-11-30T15:39:35.911008",
          "MEAN_MOTION": 13.85314156,
          "ECCENTRICITY": 0.0004524,
          "INCLINATION": 81.3032,
          "RA_OF_ASC_NODE": 35.8008,
          "ARG_OF_PERICENTER": 39.6348,
          "MEAN_ANOMALY": 320.5139,
          "EPHEMERIS_TYPE": 0,
          "CLASSIFICATION_TYPE": "U",
          "NORAD_CAT_ID": 65989,
          "ELEMENT_SET_NO": 999,
          "REV_AT_EPOCH": 633,
          "BSTAR": 0.00015227,
          "MEAN_MOTION_DOT": 1.85e-06,
          "MEAN_MOTION_DDOT": 0
        }
      },
      "geometry": {
        "type": "Point",
        "coordinates": [
          NaN,
          NaN
        ]
      }
    },
    {
      "type": "Feature",
      "properties": {
        "norad_id": 65990,
        "name": "SDA_1680",
        "group": "active",
        "lat": NaN,
        "lon": NaN,
        "alt_km": NaN,
        "timestamp": "2025-12-01T03:08:33.410678+00:00",
        "meta": {
          "OBJECT_NAME": "SDA_1680",
          "OBJECT_ID": "2025-230S",
          "EPOCH": "2025-11-30T15:45:20.240064",
          "MEAN_MOTION": 13.85193755,
          "ECCENTRICITY": 0.0004298,
          "INCLINATION": 81.3026,
          "RA_OF_ASC_NODE": 35.7981,
          "ARG_OF_PERICENTER": 33.1644,
          "MEAN_ANOMALY": 326.9782,
          "EPHEMERIS_TYPE": 0,
          "CLASSIFICATION_TYPE": "U",
          "NORAD_CAT_ID": 65990,
          "ELEMENT_SET_NO": 999,
          "REV_AT_EPOCH": 633,
          "BSTAR": 0.00014329,
          "MEAN_MOTION_DOT": 1.74e-06,
          "MEAN_MOTION_DDOT": 0
        }
      },
      "geometry": {
        "type": "Point",
        "coordinates": [
          NaN,
          NaN
        ]
      }
    },
    {
      "type": "Feature",
      "properties": {
        "norad_id": 65991,
        "name": "SDA_1681",
        "group": "active",
        "lat": NaN,
        "lon": NaN,
        "alt_km": NaN,
        "timestamp": "2025-12-01T03:08:33.410685+00:00",
        "meta": {
          "OBJECT_NAME": "SDA_1681",
          "OBJECT_ID": "2025-230T",
          "EPOCH": "2025-11-30T15:41:34.508832",
          "MEAN_MOTION": 13.85271306,
          "ECCENTRICITY": 0.0004394,
          "INCLINATION": 81.3022,
          "RA_OF_ASC_NODE": 35.7925,
          "ARG_OF_PERICENTER": 37.4248,
          "MEAN_ANOMALY": 322.7215,
          "EPHEMERIS_TYPE": 0,
          "CLASSIFICATION_TYPE": "U",
          "NORAD_CAT_ID": 65991,
          "ELEMENT_SET_NO": 999,
          "REV_AT_EPOCH": 633,
          "BSTAR": 0.00016326,
          "MEAN_MOTION_DOT": 1.97e-06,
          "MEAN_MOTION_DDOT": 0
        }
      },
      "geometry": {
        "type": "Point",
        "coordinates": [
          NaN,
          NaN
        ]
      }
    },
    {
      "type": "Feature",
      "properties": {
        "norad_id": 65992,
        "name": "SDA_1682",
        "group": "active",
        "lat": NaN,
        "lon": NaN,
        "alt_km": NaN,
        "timestamp": "2025-12-01T03:08:33.410690+00:00",
        "meta": {
          "OBJECT_NAME": "SDA_1682",
          "OBJECT_ID": "2025-230U",
          "EPOCH": "2025-11-30T16:02:11.800032",
          "MEAN_MOTION": 13.84837809,
          "ECCENTRICITY": 0.0002667,
          "INCLINATION": 81.3052,
          "RA_OF_ASC_NODE": 35.8256,
          "ARG_OF_PERICENTER": 9.1857,
          "MEAN_ANOMALY": 350.9348,
          "EPHEMERIS_TYPE": 0,
          "CLASSIFICATION_TYPE": "U",
          "NORAD_CAT_ID": 65992,
          "ELEMENT_SET_NO": 999,
          "REV_AT_EPOCH": 633,
          "BSTAR": 0.00013501,
          "MEAN_MOTION_DOT": 1.64e-06,
          "MEAN_MOTION_DDOT": 0
        }
      },
      "geometry": {
        "type": "Point",
        "coordinates": [
          NaN,
          NaN
        ]
      }
    },
    {
      "type": "Feature",
      "properties": {
        "norad_id": 65993,
        "name": "SDA_1683",
        "group": "active",
        "lat": NaN,
        "lon": NaN,
        "alt_km": NaN,
        "timestamp": "2025-12-01T03:08:33.410695+00:00",
        "meta": {
          "OBJECT_NAME": "SDA_1683",
          "OBJECT_ID": "2025-230V",
          "EPOCH": "2025-11-30T15:58:21.544896",
          "MEAN_MOTION": 13.84919031,
          "ECCENTRICITY": 0.0003012,
          "INCLINATION": 81.3041,
          "RA_OF_ASC_NODE": 35.8172,
          "ARG_OF_PERICENTER": 12.4456,
          "MEAN_ANOMALY": 347.6775,
          "EPHEMERIS_TYPE": 0,
          "CLASSIFICATION_TYPE": "U",
          "NORAD_CAT_ID": 65993,
          "ELEMENT_SET_NO": 999,
          "REV_AT_EPOCH": 633,
          "BSTAR": 0.00014858,
          "MEAN_MOTION_DOT": 1.8e-06,
          "MEAN_MOTION_DDOT": 0
        }
      },
      "geometry": {
        "type": "Point",
        "coordinates": [
          NaN,
          NaN
        ]
      }
    },
    {
      "type": "Feature",
      "properties": {
        "norad_id": 65994,
        "name": "SDA_1684",
        "group": "active",
        "lat": NaN,
        "lon": NaN,
        "alt_km": NaN,
        "timestamp": "2025-12-01T03:08:33.410700+00:00",
        "meta": {
          "OBJECT_NAME": "SDA_1684",
          "OBJECT_ID": "2025-230W",
          "EPOCH": "2025-11-30T16:05:14.966304",
          "MEAN_MOTION": 13.84772692,
          "ECCENTRICITY": 0.000274,
          "INCLINATION": 81.3025,
          "RA_OF_ASC_NODE": 35.8158,
          "ARG_OF_PERICENTER": 356.4483,
          "MEAN_ANOMALY": 3.6654,
          "EPHEMERIS_TYPE": 0,
          "CLASSIFICATION_TYPE": "U",
          "NORAD_CAT_ID": 65994,
          "ELEMENT_SET_NO": 999,
          "REV_AT_EPOCH": 633,
          "BSTAR": 0.00012044,
          "MEAN_MOTION_DOT": 1.47e-06,
          "MEAN_MOTION_DDOT": 0
        }
      },
      "geometry": {
        "type": "Point",
        "coordinates": [
          NaN,
          NaN
        ]
      }
    },
    {
      "type": "Feature",
      "properties": {
        "norad_id": 65995,
        "name": "HULIANWANG DIGUI 12A",
        "group": "active",
        "lat": NaN,
        "lon": NaN,
        "alt_km": NaN,
        "timestamp": "2025-12-01T03:08:33.410705+00:00",
        "meta": {
          "OBJECT_NAME": "HULIANWANG DIGUI 12A",
          "OBJECT_ID": "2025-231A",
          "EPOCH": "2025-11-26T19:26:15.042912",
          "MEAN_MOTION": 13.82094399,
          "ECCENTRICITY": 0.0002681,
          "INCLINATION": 49.9939,
          "RA_OF_ASC_NODE": 189.0064,
          "ARG_OF_PERICENTER": 346.6817,
          "MEAN_ANOMALY": 13.4007,
          "EPHEMERIS_TYPE": 0,
          "CLASSIFICATION_TYPE": "U",
          "NORAD_CAT_ID": 65995,
          "ELEMENT_SET_NO": 999,
          "REV_AT_EPOCH": 585,
          "BSTAR": 9.940641e-05,
          "MEAN_MOTION_DOT": -3.6e-07,
          "MEAN_MOTION_DDOT": 0
        }
      },
      "geometry": {
        "type": "Point",
        "coordinates": [
          NaN,
          NaN
        ]
      }
    }
  ]
}